TAF AMD CYYJ 200152Z 2001/2024 16008KT WS005/14030KT P6SM SCT025 
OVC040 TEMPO 2001/2004 5SM -RA BR FEW008 BKN020 
BECMG 2002/2004 13015G25KT 
FM200400 13020G30KT P6SM -RA SCT015 OVC030 TEMPO 2004/2015 3SM 
-RA BR FEW007 OVC015 
FM201500 20015KT P6SM -SHRA BKN030 
BECMG 2018/2020 24020G30KT 
RMK NXT FCST BY 200600Z= 